C/1986 P1-A (Wilson),e,147.6236,112.4384,239.1049,1745,0.0000135,0.99929962,0.0000,04/27.3577/1987,2000,g  9.0,4.0
# From  116, 46
C/1986 P1-B (Wilson),e,147.6250,112.4391,239.1149,4833,0.0000029,0.99974712,0.0000,04/27.4379/1987,2000,g  9.0,4.0
# From MPC 20481
C/1986 V1 (Sorrells),e,160.4236,74.3189,69.6923,2839,0.0000065,0.99939077,0.0000,02/12.2389/1987,2000,g  9.0,4.0
# From MPC 12124
C/1987 A1 (Levy),h,12/03.3865/1986,96.5755,17.4277,95.5618,1.000206,0.960872,2000,9.0,4.0
# From MPC 12009
C/1987 B1 (Nishikawa-Takamizawa-Tago),e,172.3555,176.1877,200.6610,189.3190,0.0003784,0.99527267,0.0000,02/21.3075/1987,2000,g  9.0,4.0
# From MPC 12200
C/1987 B2 (Terasako),e,42.0159,97.8639,194.8458,73.26212,0.0015718,0.99490806,0.0000,01/04.1674/1987,2000,g  9.0,4.0
# From MPC 16377
C/1987 F1 (Torres),h,04/08.4594/1987,123.9560,194.6800,329.4502,1.000089,3.682866,2000,9.0,4.0
# From MPC 16377
C/1987 H1 (Shoemaker),h,11/09.4542/1986,132.7392,268.1885,17.0792,1.000903,5.524811,2000,9.0,4.0
# From MPC 14903
C/1987 P1 (Bradfield),e,34.4101,268.9913,72.7025,134.1974,0.0006340,0.99379188,0.0000,11/07.2759/1987,2000,g  9.0,4.0
# From MPC 17939
C/1987 Q1 (Rudenko),h,10/13.3641/1987,113.8987,299.7926,144.2832,1.000304,0.592915,2000,9.0,4.0
# From MPC 12575
C/1987 T1 (Levy),p,09/09.1716/1987,62.5345,13.1872,0.515185,143.7254,2000,9.0,4.0
# From  98, 2306
C/1987 T2 (SMM),p,10/06.069/1987,144.256,80.591,0.00538,1.159,2000,9.0,4.0
# From MPC 87062
C/1987 U3 (McNaught),e,98.0833,261.3540,17.5129,448.8498,0.0001036,0.99811004,0.0000,12/22.3752/1987,2000,g  9.0,4.0
# From  98, 2306
C/1987 U4 (SMM),p,10/18.027/1987,144.466,82.632,0.00627,3.660,2000,9.0,4.0
# From MPC 12710
C/1987 W1 (Ichimura),p,01/10.1039/1988,41.6193,329.2939,0.199510,226.5275,2000,9.0,4.0
# From MPC 26374
C/1987 W2 (Furuyama),e,117.3481,250.5030,233.4869,9705,0.0000010,0.99982584,0.0000,02/09.2342/1988,2000,g  9.0,4.0
# From MPC 17939
C/1987 W3 (Jensen-Shoemaker),h,01/01.4782/1988,76.8995,198.3049,194.4622,1.000708,3.310102,2000,9.0,4.0
# From MPC 13459
C/1988 A1 (Liller),e,73.3309,31.5953,57.5534,228.3550,0.0002856,0.99619886,0.0000,03/07.0940/1988,2000,g  9.0,4.0
# From MPC 16377
C/1988 B1 (Shoemaker),h,03/08.0921/1987,80.5841,325.6584,124.2493,1.000816,5.064070,2000,9.0,4.0
# From MPC 13042
C/1988 C1 (Maury-Phinney),p,12/26.7884/1987,93.1570,346.8345,1.930534,147.5202,2000,9.0,4.0
# From MPC 15379
C/1988 F1 (Levy),e,63.4232,287.8998,326.8277,423.7672,0.0001130,0.99723487,0.0000,12/07.7570/1987,2000,g  9.0,4.0
# From MPC 15379
C/1988 J1 (Shoemaker-Holt),e,63.4165,287.9041,326.8338,434.2126,0.0001089,0.99729976,0.0000,02/21.9365/1988,2000,g  9.0,4.0
# From MPC 17791
C/1988 L1 (Shoemaker-Holt-Rodriquez),e,98.2755,115.5621,232.2961,5992,0.0000021,0.99958588,0.0000,06/14.0704/1989,2000,g  9.0,4.0
# From  98, 2306
C/1988 M1 (SMM),p,06/27.784/1988,144.706,85.882,0.00516,7.660,2000,9.0,4.0
# From MPC 13591
C/1988 P1 (Machholz),p,09/17.5682/1988,40.1990,349.0366,0.164558,167.7281,2000,9.0,4.0
# From  98, 2306
C/1988 Q1 (SMM),p,08/21.819/1988,144.436,82.252,0.00591,3.200,2000,9.0,4.0
# From  98, 2306
C/1988 T1 (SMM),p,10/12.072/1988,144.786,88.083,0.00513,10.351,2000,9.0,4.0
# From  98, 2306
C/1988 U1 (SMM),p,10/24.864/1988,144.716,86.142,0.00579,7.981,2000,9.0,4.0
# From  98, 2306
C/1988 W1 (SMM),p,11/18.369/1988,144.796,91.084,0.00590,14.021,2000,9.0,4.0
# From MPC 14322
C/1988 Y1 (Yanaka),p,12/11.6530/1988,71.0077,88.1228,0.427818,315.5225,2000,9.0,4.0
# From MPC 16204
C/1989 A1 (Yanaka),e,51.9397,157.4216,351.7062,1992,0.0000111,0.99902519,0.0000,10/21.6675/1988,2000,g  9.0,4.0
# From MPC 14322
C/1989 A3 (Bradfield),e,83.0672,28.4357,194.7353,18.85335,0.0120399,0.97770841,0.0000,12/05.2437/1988,2000,g  9.0,4.0
# From MPC 72848
C/1989 A5 (Shoemaker),e,95.8751,137.2470,19.1932,581.1008,0.0000704,0.99544972,0.0000,02/25.0601/1989,2000,g  9.0,4.0
# From MPC 14460
C/1989 A6 (Shoemaker),p,11/02.0870/1988,25.5050,18.8355,2.207834,74.3147,2000,9.0,4.0
# From  98, 2306
C/1989 L1 (SMM),p,06/02.578/1989,144.636,84.722,0.00557,6.240,2000,9.0,4.0
# From  98, 2306
C/1989 N3 (SMM),p,07/08.772/1989,144.786,91.804,0.00462,14.902,2000,9.0,4.0
# From MPC 16378
C/1989 Q1 (Okazaki-Levy-Rudenko),e,89.2391,276.3831,150.3960,15512,0.0000005,0.99995934,0.0000,11/04.5524/1989,2000,g  9.0,4.0
# From MPC 16001
C/1989 R1 (Helin-Roman),p,08/20.2910/1989,128.1341,154.9103,1.324502,128.6096,2000,9.0,4.0
# From IAUC 4884
C/1989 S1 (SMM),p,09/28.855/1989,144.768,87.499,0.00476,9.636,2000,9.0,4.0
# From MPC 20308
C/1989 T1 (Helin-Roman-Alu),e,46.2934,8.9525,67.8177,100.1440,0.0009835,0.98937302,0.0000,11/22.9373/1989,2000,g  9.0,4.0
# From MPC 30631
C/1989 W1 (Aarseth-Brewington),h,01/04.6824/1990,86.8641,345.4588,205.2116,1.000079,0.296332,2000,9.0,4.0
# From MPC 17400
C/1989 X1 (Austin),h,03/29.3565/1990,58.2903,74.9808,62.3398,1.000144,0.369941,2000,9.0,4.0
# From MPC 85334
C/1989 Y1 (Skorichenko-George),e,59.0623,280.6618,137.2439,1500,0.0000170,0.99896247,0.0000,03/31.2820/1990,2000,g  9.0,4.0
# From MPC 17595
C/1989 Y2 (McKenzie-Russell),p,11/07.6940/1989,160.3369,191.7410,1.975817,293.8975,2000,9.0,4.0
# From MPC 16551
C/1990 E1 (Cernis-Kiuchi-Nakamura),p,03/17.3264/1990,48.1425,100.6214,1.068339,348.4448,2000,9.0,4.0
# From MPC 20602
C/1990 K1 (Levy),h,10/23.6560/1990,132.0820,140.1584,243.2141,1.000839,0.953776,2000,9.0,4.0
# From MPC 18255
C/1990 M1 (McNaught-Hughes),h,03/08.6461/1991,132.8673,233.2392,18.3662,1.001325,2.702937,2000,9.0,4.0
# From MPC 17595
C/1990 N1 (Tsuchiya-Kiuchi),e,143.2367,331.0248,180.9843,229.6097,0.0002833,0.99533922,0.0000,10/10.0498/1990,2000,g  9.0,4.0
# From MPC 18081
C/1991 A2 (Arai),e,70.4039,116.0501,337.3739,135.3607,0.0006258,0.98937436,0.0000,11/29.0835/1990,2000,g  9.0,4.0
# From MPC 21758
C/1991 B1 (Shoemaker-Levy),e,76.8361,144.6538,74.3883,337.8725,0.0001587,0.99332212,0.0000,01/04.2771/1992,2000,g  9.0,4.0
# From MPC 20308
C/1991 C3 (McNaught-Russell),e,113.5695,162.0955,321.1331,804.9121,0.0000432,0.99402181,0.0000,10/15.2227/1990,2000,g  9.0,4.0
# From NK 576
C/1991 F2 (Helin-Lawrence),h,01/29.1870/1992,95.3155,11.4982,270.8499,1.000273,1.480009,2000,9.0,4.0
# From MPC 21758
C/1991 L3 (Levy),e,19.2558,329.7596,41.2129,13.81588,0.0191927,0.92895852,205.5700,10/05.0/2020,2000,g  9.0,4.0
# From NK 577
C/1991 L4 (Helin-Alu),h,03/05.9654/1992,49.4966,253.6221,30.8343,1.001252,4.831817,2000,9.0,4.0
# From MPC 22196
C/1991 Q1 (McNaught-Russell),e,90.8360,120.8504,257.2209,567.5998,0.0000729,0.99437894,0.0000,05/03.0834/1992,2000,g  9.0,4.0
# From MPC 23847
C/1991 R1 (McNaught-Russell),e,104.5851,149.7993,148.9288,2589,0.0000075,0.99731070,0.0000,11/05.1381/1990,2000,g  9.0,4.0
# From MPC 20602
C/1991 T2 (Shoemaker-Levy),e,113.6304,48.9501,145.4273,4067,0.0000038,0.99978825,0.0000,07/25.8413/1992,2000,g  9.0,4.0
# From MPC 19818
C/1991 X2 (Mueller),h,03/18.6072/1992,96.5932,286.9979,306.9472,1.000129,0.205422,2000,9.0,4.0
# From MPC 20774
C/1991 Y1 (Zanotta-Brewington),e,49.5632,254.7774,197.9279,838.6429,0.0000406,0.99921913,0.0000,01/13.3029/1992,2000,g  9.0,4.0
# From MPC 22196
C/1992 A1 (Helin-Alu),h,06/26.5240/1992,38.9875,288.5544,240.1721,1.000478,3.059435,2000,9.0,4.0
# From MPC 19818
C/1992 B1 (Bradfield),p,03/19.5392/1992,20.2378,15.3368,0.500157,275.3503,2000,9.0,4.0
# From MPC 21758
C/1992 F1 (Tanaka-Machholz),e,79.8325,301.1384,65.2807,297.2320,0.0001923,0.99578047,0.0000,04/21.4298/1992,2000,g  9.0,4.0
# From MPC 25313
C/1992 J1 (Spacewatch),e,124.3366,203.2854,83.0603,2327,0.0000088,0.99872945,0.0000,09/18.4115/1993,2000,g  9.0,4.0
# From MPC 20481
C/1992 J2 (Bradfield),p,05/25.7940/1992,158.5644,299.7170,0.592305,159.9981,2000,9.0,4.0
# From NK 581
C/1992 N1 (Machholz),p,07/10.8186/1992,57.6407,162.6392,0.819198,235.1287,2000,9.0,4.0
# From MPC 23479
C/1992 Q2 (Helin-Lawrence),e,106.8496,194.8505,269.0025,59.12229,0.0021681,0.96489971,21.8600,10/05.0/2020,2000,g  9.0,4.0
# From MPC 23480
C/1992 U1 (Shoemaker),e,65.8441,55.1544,55.2743,1714,0.0000139,0.99862385,0.0000,03/03.9136/1993,2000,g  9.0,4.0
# From MPC 21533
C/1992 W1 (Ohshita),e,114.6382,139.3544,310.4208,78.40107,0.0014198,0.99154014,0.0000,11/05.7867/1992,2000,g  9.0,4.0
# From MPC 23649
C/1993 A1 (Mueller),h,01/02.9032/1994,125.0663,144.1981,130.2671,1.000632,1.931547,2000,9.0,4.0
# From MPC 25407
C/1993 F1 (Mueller),h,07/13.8625/1992,53.7714,77.3864,62.2753,1.002178,5.962007,2000,9.0,4.0
# From MPC 23764
D/1993 F2-A (Shoemaker-Levy),h,08/20.5489/1994,160.2419,42.6673,205.8809,9.999999,4.811743,2000,9.0,4.0
# From MPC 23764
D/1993 F2-B (Shoemaker-Levy),h,06/29.5515/1994,70.8070,225.3328,353.2396,9.999999,5.447636,2000,9.0,4.0
# From MPC 23764
D/1993 F2-C (Shoemaker-Levy),h,05/24.9339/1994,51.9717,224.8603,349.5785,7.352611,5.395501,2000,9.0,4.0
# From MPC 23764
D/1993 F2-D (Shoemaker-Levy),e,40.9172,223.8193,160.7175,4.213508,0.1139563,0.33051776,230.6126,10/05.0/2020,2000,g  9.0,4.0
# From MPC 23764
D/1993 F2-E (Shoemaker-Levy),h,03/23.7378/1994,26.0422,222.9123,348.1255,1.895553,5.369279,2000,9.0,4.0
# From MPC 23765
D/1993 F2-F (Shoemaker-Levy),h,07/16.1733/1994,89.6463,225.7284,359.1830,9.999999,5.492980,2000,9.0,4.0
# From MPC 23765
D/1993 F2-G (Shoemaker-Levy),h,05/21.0714/1994,50.9076,224.9075,349.1962,6.497492,5.389956,2000,9.0,4.0
# From MPC 23765
D/1993 F2-H (Shoemaker-Levy),h,09/09.4387/1994,151.1109,43.8528,206.9199,9.999999,4.816450,2000,9.0,4.0
# From MPC 23765
D/1993 F2-K (Shoemaker-Levy),h,04/30.0084/1994,44.9244,224.7496,350.9691,2.171114,5.429191,2000,9.0,4.0
# From MPC 23765
D/1993 F2-L (Shoemaker-Levy),h,07/27.0838/1994,140.9982,227.1867,18.8645,9.999999,5.250230,2000,9.0,4.0
# From MPC 23765
D/1993 F2-N (Shoemaker-Levy),h,04/30.4242/1994,44.8071,224.8198,350.9609,2.134002,5.428978,2000,9.0,4.0
# From MPC 23765
D/1993 F2-P (Shoemaker-Levy),h,03/21.8927/1994,19.9221,222.1005,347.9403,2.029215,5.346011,2000,9.0,4.0
# From MPC 23765
D/1993 F2-Q (Shoemaker-Levy),h,08/22.7492/1994,160.0359,43.0130,204.3832,9.999999,4.880177,2000,9.0,4.0
# From MPC 23765
